sat04814
1 04814U 70113B   20046.92008791  .00000844  00000-0  23650-4 0  9993
2 04814  81.1430 303.7157 0024232 335.3441  24.6637 15.35125191684333
